<?xml version="1.0" encoding="UTF-8"?>
<kml xmlns="http://www.opengis.net/kml/2.2">
  <Document>
    <name>BRAAVG002 areas de controle combinadas</name>
    <Placemark>
      <name>Area de controle 01</name>
      <Polygon>
        <outerBoundaryIs>
          <LinearRing>
            <coordinates>-43.71184970,-19.81771179,0 -43.71242047,-19.81685576,0 -43.71260030,-19.81642728,0 -43.71281312,-19.81629538,0 -43.71316549,-19.81636135,0 -43.71344523,-19.81665807,0 -43.71393647,-19.81695465,0 -43.71460572,-19.81705349,0 -43.71524060,-19.81705350,0 -43.71545224,-19.81705351,0 -43.71591291,-19.81685586,0 -43.71594854,-19.81682291,0 -43.71676452,-19.81642738,0 -43.71712172,-19.81606457,0 -43.71737162,-19.81583357,0 -43.71832708,-19.81566853,0 -43.71871728,-19.81553645,0 -43.71935346,-19.81550343,0 -43.71991858,-19.81550344,0 -43.72052145,-19.81533829,0 -43.72082130,-19.81418096,0 -43.72082327,-19.81404855,0 -43.72100658,-19.81361801,0 -43.72111421,-19.81351861,0 -43.72111622,-19.81338606,0 -43.72133818,-19.81275600,0 -43.72134072,-19.81259009,0 -43.72160562,-19.81149389,0 -43.72179013,-19.81102822,0 -43.72179378,-19.81079525,0 -43.72166284,-19.81009580,0 -43.72162840,-19.81002914,0 -43.72129038,-19.80892823,0 -43.72112999,-19.80779181,0 -43.72057447,-19.80688784,0 -43.72062039,-19.80618378,0 -43.72094880,-19.80564677,0 -43.72144737,-19.80564674,0 -43.72180192,-19.80574744,0 -43.72198422,-19.80547879,0 -43.72198476,-19.80544521,0 -43.72181509,-19.80490756,0 -43.72150372,-19.80430214,0 -43.72115126,-19.80403288,0 -43.72115279,-19.80393187,0 -43.72098003,-19.80356136,0 -43.72077347,-19.80305574,0 -43.72077397,-19.80302202,0 -43.72078196,-19.80248217,0 -43.72100329,-19.80200938,0 -43.72146922,-19.80190799,0 -43.72189897,-19.80184036,0 -43.72183494,-19.80136709,0 -43.72148482,-19.80089347,0 -43.72109663,-19.80055495,0 -43.72084780,-19.80045337,0 -43.72070922,-19.80014847,0 -43.72067794,-19.79984340,0 -43.72064464,-19.79967385,0 -43.71979566,-19.79896129,0 -43.71962177,-19.79858768,0 -43.71912210,-19.79845180,0 -43.71858561,-19.79838388,0 -43.71808191,-19.79855384,0 -43.71786278,-19.79889354,0 -43.71782278,-19.79923304,0 -43.71767667,-19.79947058,0 -43.71721296,-19.79933490,0 -43.71674371,-19.79967417,0 -43.71648939,-19.80001323,0 -43.71591259,-19.80041987,0 -43.71558858,-19.80062308,0 -43.71504948,-19.80089392,0 -43.71497765,-19.80092777,0 -43.71447651,-19.80099547,0 -43.71390395,-19.80106317,0 -43.71333204,-19.80106319,0 -43.71261796,-19.80096169,0 -43.71243950,-19.80092785,0 -43.71208227,-19.80089402,0 -43.71183477,-19.80052162,0 -43.71151413,-19.80035227,0 -43.71137155,-19.80028452,0 -43.71062131,-19.80014899,0 -43.71044435,-19.79984394,0 -43.70976645,-19.79950480,0 -43.70937276,-19.79950480,0 -43.70937583,-19.79892783,0 -43.70991371,-19.79879199,0 -43.71034469,-19.79858817,0 -43.71034844,-19.79797629,0 -43.71031592,-19.79743188,0 -43.70956416,-19.79722760,0 -43.70942128,-19.79712544,0 -43.70906371,-19.79692105,0 -43.70870618,-19.79668251,0 -43.70806046,-19.79668250,0 -43.70780935,-19.79668250,0 -43.70759411,-19.79668250,0 -43.70723502,-19.79678474,0 -43.70719903,-19.79681881,0 -43.70669602,-19.79709135,0 -43.70637289,-19.79722757,0 -43.70615766,-19.79726162,0 -43.70601415,-19.79729566,0 -43.70583480,-19.79732971,0 -43.70551211,-19.79732969,0 -43.70518924,-19.79743182,0 -43.70511754,-19.79743181,0 -43.70475969,-19.79698910,0 -43.70468864,-19.79651197,0 -43.70440203,-19.79617093,0 -43.70415104,-19.79593207,0 -43.70393597,-19.79555655,0 -43.70346938,-19.79507826,0 -43.70293057,-19.79500987,0 -43.70246358,-19.79500984,0 -43.70228397,-19.79500983,0 -43.70178126,-19.79521484,0 -43.70138676,-19.79565883,0 -43.70110007,-19.79600013,0 -43.70099256,-19.79610249,0 -43.70081366,-19.79640945,0 -43.70067079,-19.79675033,0 -43.70060019,-19.79732941,0 -43.70056583,-19.79807797,0 -43.70038777,-19.79858780,0 -43.70038792,-19.79865575,0 -43.70031757,-19.79923298,0 -43.70021111,-19.79964009,0 -43.70021119,-19.79967401,0 -43.70017675,-19.80025025,0 -43.70010610,-19.80062282,0 -43.70035787,-19.80129964,0 -43.70085876,-19.80163779,0 -43.70100177,-19.80170540,0 -43.70193070,-19.80184064,0 -43.70264497,-19.80143507,0 -43.70268066,-19.80126598,0 -43.70318106,-19.80072460,0 -43.70368171,-19.80052147,0 -43.70468300,-19.80048765,0 -43.70604100,-19.80082628,0 -43.70657613,-19.80119851,0 -43.70654019,-19.80126616,0 -43.70639715,-19.80129997,0 -43.70578878,-19.80167187,0 -43.70557436,-19.80170566,0 -43.70493150,-19.80160423,0 -43.70457469,-19.80126608,0 -43.70450322,-19.80126608,0 -43.70393130,-19.80143514,0 -43.70385976,-19.80153657,0 -43.70332369,-19.80204344,0 -43.70328795,-19.80214476,0 -43.70314504,-19.80265113,0 -43.70314503,-19.80275236,0 -43.70303792,-19.80335934,0 -43.70300224,-19.80346044,0 -43.70289528,-19.80430230,0 -43.70289529,-19.80443688,0 -43.70289535,-19.80531097,0 -43.70293099,-19.80584823,0 -43.70310891,-19.80655266,0 -43.70332224,-19.80708881,0 -43.70371311,-19.80762449,0 -43.70417523,-19.80762451,0 -43.70456625,-19.80762453,0 -43.70431835,-19.80678734,0 -43.70428289,-19.80668680,0 -43.70431892,-19.80628447,0 -43.70439009,-19.80628447,0 -43.70502998,-19.80668684,0 -43.70506538,-19.80678738,0 -43.70506474,-19.80715588,0 -43.70506404,-19.80755762,0 -43.70513478,-19.80775840,0 -43.70555965,-19.80852741,0 -43.70602159,-19.80846060,0 -43.70634280,-19.80792571,0 -43.70644980,-19.80779191,0 -43.70687806,-19.80725641,0 -43.70698518,-19.80712247,0 -43.70705665,-19.80702198,0 -43.70741417,-19.80651932,0 -43.70745050,-19.80631813,0 -43.70770397,-19.80521038,0 -43.70834422,-19.80541196,0 -43.70841499,-19.80551272,0 -43.70841408,-19.80571418,0 -43.70848159,-19.80651935,0 -43.70848113,-19.80661992,0 -43.70769539,-19.80739036,0 -43.70765970,-19.80742384,0 -43.70755253,-19.80755772,0 -43.70719550,-19.80799263,0 -43.70683873,-19.80842721,0 -43.70658885,-19.80882809,0 -43.70658865,-19.80889488,0 -43.70640995,-19.80929545,0 -43.70626713,-19.80959569,0 -43.70644198,-19.81049555,0 -43.70686700,-19.81066206,0 -43.70732759,-19.81076194,0 -43.70757437,-19.81112801,0 -43.70693494,-19.81156030,0 -43.70686408,-19.81156030,0 -43.70629524,-19.81225797,0 -43.70579754,-19.81308747,0 -43.70554820,-19.81384959,0 -43.70522694,-19.81543699,0 -43.70522675,-19.81553607,0 -43.70522458,-19.81669070,0 -43.70568188,-19.81728366,0 -43.70578766,-19.81728366,0 -43.70659979,-19.81692142,0 -43.70670582,-19.81685553,0 -43.70709441,-19.81669079,0 -43.70720060,-19.81659191,0 -43.70727164,-19.81646005,0 -43.70769717,-19.81593231,0 -43.70773299,-19.81580030,0 -43.70794593,-19.81553619,0 -43.70837253,-19.81490847,0 -43.70840801,-19.81487541,0 -43.70869273,-19.81444551,0 -43.70879942,-19.81431317,0 -43.70897700,-19.81414770,0 -43.70947377,-19.81381664,0 -43.71007498,-19.81381666,0 -43.71042431,-19.81451173,0 -43.71049106,-19.81513989,0 -43.71049085,-19.81517294,0 -43.71055773,-19.81576740,0 -43.71059283,-19.81580041,0 -43.71072828,-19.81669094,0 -43.71069003,-19.81715217,0 -43.71079217,-19.81771175,0 -43.71135618,-19.81771178,0 -43.71146194,-19.81771178,0 -43.71184970,-19.81771179,0</coordinates>
          </LinearRing>
        </outerBoundaryIs>
      </Polygon>
    </Placemark>
    <Placemark>
      <name>Area de controle 02</name>
      <Polygon>
        <outerBoundaryIs>
          <LinearRing>
            <coordinates>-43.69040927,-19.81594812,0 -43.69073824,-19.81661568,0 -43.69132336,-19.81663646,0 -43.69335777,-19.81626885,0 -43.69428575,-19.81719681,0 -43.69563717,-19.81762348,0 -43.69626854,-19.81846196,0 -43.69703371,-19.81852167,0 -43.69833253,-19.81810891,0 -43.69946206,-19.81797993,0 -43.70066391,-19.81785475,0 -43.70119032,-19.81635953,0 -43.70086506,-19.81627741,0 -43.70196066,-19.81129709,0 -43.70065015,-19.80911258,0 -43.69529301,-19.80820693,0 -43.69403173,-19.81222088,0 -43.69098668,-19.81505308,0 -43.69045143,-19.81588387,0 -43.69040927,-19.81594812,0</coordinates>
          </LinearRing>
        </outerBoundaryIs>
      </Polygon>
    </Placemark>
  </Document>
</kml>
